[{"OBJECT_NAME":"STARLINK-34591","OBJECT_ID":"2025-144L","EPOCH":"2026-03-09T14:54:15.305472","MEAN_MOTION":15.3017624,"ECCENTRICITY":0.0001347,"INCLINATION":53.1602,"RA_OF_ASC_NODE":181.2038,"ARG_OF_PERICENTER":69.0087,"MEAN_ANOMALY":291.1057,"EPHEMERIS_TYPE":0,"CLASSIFICATION_TYPE":"U","NORAD_CAT_ID":64734,"ELEMENT_SET_NO":999,"REV_AT_EPOCH":3968,"BSTAR":0.0010016,"MEAN_MOTION_DOT":0.00029402,"MEAN_MOTION_DDOT":0},{"OBJECT_NAME":"OBJECT L","OBJECT_ID":"2024-024L","EPOCH":"2026-03-09T22:36:05.522976","MEAN_MOTION":15.29373491,"ECCENTRICITY":0.00073185,"INCLINATION":97.3169,"RA_OF_ASC_NODE":137.7038,"ARG_OF_PERICENTER":167.6369,"MEAN_ANOMALY":192.5052,"EPHEMERIS_TYPE":0,"CLASSIFICATION_TYPE":"U","NORAD_CAT_ID":58927,"ELEMENT_SET_NO":999,"REV_AT_EPOCH":9318,"BSTAR":0.00043092344,"MEAN_MOTION_DOT":0.00012217,"MEAN_MOTION_DDOT":0}]
